{
  "norad_id": 64340,
  "name": "QPS-SAR-11 (YAMATSUMI-I)",
  "history": [
    {
      "epoch": "2026-03-28T19:43:29.820288Z",
      "apogee_km": 571.4860750609332,
      "perigee_km": 557.0572505924611,
      "latitude_deg": -1.2225005069687441e-05,
      "longitude_deg": 152.5330244900828,
      "height_km": 558.2310346988071,
      "semi_major_axis_km": 6942.408662826697,
      "eccentricity": 0.00103918,
      "inclination_deg": 42.008,
      "raan_deg": 274.6441,
      "arg_perigee_deg": 322.3756,
      "mean_anomaly_deg": 37.6342,
      "mean_motion_rev_day": 15.00850727
    }
  ]
}