{"fetched_at":"2026-03-29T16:36:15Z","count":15609,"tles":[{"name":"QPS-SAR-11 (YAMATSUMI-I)","line1":"1 64340U 25125A   26087.82187292  .00006244  00000+0  49649-3 0  9994","line2":"2 64340  42.0080 274.6441 0010391 322.3756  37.6342 15.00850727 43549","category":"Other"}]}